{"fetched_at":"2026-03-29T02:12:04Z","count":15717,"tles":[{"name":"THEMIS E","line1":"1 30798U 07004E   26081.10711733 -.00000102  00000+0  00000+0 0  9990","line2":"2 30798   4.4028  99.1325 8354244 204.1504 168.4350  0.87837115 65156","category":"Other"}]}