{
  "norad_id": 30798,
  "name": "THEMIS E",
  "history": [
    {
      "epoch": "2026-03-22T02:34:14.937312Z",
      "apogee_km": 78153.56939292331,
      "perigee_km": 1201.5025523159284,
      "latitude_deg": 1.654565629614507,
      "longitude_deg": -96.79285902464689,
      "height_km": 77833.90889698836,
      "semi_major_axis_km": 46055.67297261962,
      "eccentricity": 0.83542441,
      "inclination_deg": 4.4028,
      "raan_deg": 99.1325,
      "arg_perigee_deg": 204.1504,
      "mean_anomaly_deg": 168.435,
      "mean_motion_rev_day": 0.87837115
    }
  ]
}